NORAD_CAT_ID,OBJECT_NAME,OBJECT_TYPE,EPOCH,MEAN_MOTION,ECCENTRICITY,INCLINATION,RA_OF_ASC_NODE,ARG_OF_PERICENTER,MEAN_ANOMALY,BSTAR,MEAN_MOTION_DOT,MEAN_MOTION_DDOT,TLE_LINE0,TLE_LINE1,TLE_LINE2,SEMIMAJOR_AXIS,PERIOD,APOGEE,PERIGEE,DECAYED
51990.0,STARLINK-3657,PAYLOAD,2023-01-20 12:21:33,15.08852234,9.12e-05,53.2159,115.5218,99.8116,260.2979,0.00080358,0.00012528,0.0,0 STARLINK-3657,1 51990U 22025AL  23020.51496802  .00012528  00000-0  80358-3 0  9992,2 51990  53.2159 115.5218 0000912  99.8116 260.2979 15.08852234 49703,6917.843000000001,95.437,540.339,539.077,0.0
51990.0,STARLINK-3657,PAYLOAD,2023-01-20 23:29:15,15.08853231,0.0001391,53.2178,113.4427,83.5524,276.5627,0.00092731,0.00014506,0.0,0 STARLINK-3657,1 51990U 22025AL  23020.97864969  .00014506  00000-0  92731-3 0  9991,2 51990  53.2178 113.4427 0001391  83.5524 276.5627 15.08853231 49773,6917.84,95.437,540.6669999999999,538.743,0.0
51990.0,STARLINK-3657,PAYLOAD,2023-01-21 10:36:57,15.08843447,0.0002019,53.2178,111.3594,91.7874,268.335,0.00072711,0.00011304,0.0,0 STARLINK-3657,1 51990U 22025AL  23021.44233316  .00011304  00000-0  72711-3 0  9999,2 51990  53.2178 111.3594 0002019  91.7874 268.3350 15.08843447 49840,6917.87,95.437,541.132,538.3380000000001,0.0
51990.0,STARLINK-3657,PAYLOAD,2023-01-21 15:23:06,15.08858641,0.0001273,53.2162,110.4664,105.7677,254.3456,0.00096726,0.00015147,0.0,0 STARLINK-3657,1 51990U 22025AL  23021.64104758  .00015147  00000-0  96726-3 0  9999,2 51990  53.2162 110.4664 0001273 105.7677 254.3456 15.08858641 49876,6917.823,95.436,540.569,538.808,0.0
51990.0,STARLINK-3657,PAYLOAD,2023-01-22 08:52:21,15.0884813,9.61e-05,53.2164,107.1981,74.1316,285.9782,0.00097935,0.00015336,0.0,0 STARLINK-3657,1 51990U 22025AL  23022.36969365  .00015336  00000-0  97935-3 0  9995,2 51990  53.2164 107.1981 0000961  74.1316 285.9782 15.08848130 49981,6917.856,95.437,540.385,539.056,0.0
51990.0,STARLINK-3657,PAYLOAD,2023-01-23 05:32:22,15.0884548,0.0001335,53.2176,103.3258,114.6413,245.4718,0.00084448,0.00013179,0.0,0 STARLINK-3657,1 51990U 22025AL  23023.23081381  .00013179  00000-0  84448-3 0  9993,2 51990  53.2176 103.3258 0001335 114.6413 245.4718 15.08845480 50115,6917.8640000000005,95.437,540.6519999999999,538.805,0.0
51990.0,STARLINK-3657,PAYLOAD,2023-01-24 03:47:46,15.08842672,0.0001571,53.2164,99.1728,44.4205,315.6913,0.00027121,4.031e-05,0.0,0 STARLINK-3657,1 51990U 22025AL  23024.15817769  .00004031  00000-0  27121-3 0  9994,2 51990  53.2164  99.1728 0001571  44.4205 315.6913 15.08842672 50259,6917.871999999999,95.437,540.8240000000001,538.65,0.0
51990.0,STARLINK-3657,PAYLOAD,2023-01-25 11:35:29,15.08838729,0.0001143,53.2159,93.2207,80.3711,279.741,9.8875e-05,1.286e-05,0.0,0 STARLINK-3657,1 51990U 22025AL  23025.48297959  .00001286  00000-0  98875-4 0  9998,2 51990  53.2159  93.2207 0001143  80.3711 279.7410 15.08838729 50458,6917.884,95.438,540.54,538.9590000000001,0.0
51990.0,STARLINK-3657,PAYLOAD,2023-01-25 13:10:52,15.08840545,0.0001229,53.2163,92.9232,86.8828,273.2305,0.00012746,1.741e-05,0.0,0 STARLINK-3657,1 51990U 22025AL  23025.54921873  .00001741  00000-0  12746-3 0  9992,2 51990  53.2163  92.9232 0001229  86.8828 273.2305 15.08840545 49361,6917.879,95.438,540.594,538.894,0.0
51990.0,STARLINK-3657,PAYLOAD,2023-01-26 11:26:15,15.08853574,0.0001175,53.2162,88.7603,85.4082,274.7044,0.00025789,3.82e-05,0.0,0 STARLINK-3657,1 51990U 22025AL  23026.47657189  .00003820  00000-0  25789-3 0  9992,2 51990  53.2162  88.7603 0001175  85.4082 274.7044 15.08853574 50603,6917.839,95.437,540.5169999999999,538.891,0.0
51990.0,STARLINK-3657,PAYLOAD,2023-01-27 03:20:07,15.08838266,0.0001291,53.217,85.7888,78.91199999999999,281.2018,7.131e-05,8.47e-06,0.0,0 STARLINK-3657,1 51990U 22025AL  23027.13897936  .00000847  00000-0  71310-4 0  9990,2 51990  53.2170  85.7888 0001291  78.9120 281.2018 15.08838266 50709,6917.886,95.438,540.644,538.8580000000001,0.0
51990.0,STARLINK-3657,PAYLOAD,2023-01-27 12:52:26,15.08840808,0.000131,53.217,84.0019,93.8643,266.2499,9.9714e-05,1.299e-05,0.0,0 STARLINK-3657,1 51990U 22025AL  23027.53642093  .00001299  00000-0  99714-4 0  9996,2 51990  53.2170  84.0019 0001310  93.8643 266.2499 15.08840808 49669,6917.878000000001,95.438,540.649,538.837,0.0
51990.0,STARLINK-3657,PAYLOAD,2023-01-27 20:49:22,15.0883677,0.000144,53.2162,82.5153,84.9678,275.1478,-8.3363e-06,-4.21e-06,0.0,0 STARLINK-3657,1 51990U 22025AL  23027.86762227 -.00000421  00000-0 -83363-5 0  9996,2 51990  53.2162  82.5153 0001440  84.9678 275.1478 15.08836770 49710,6917.89,95.438,540.751,538.759,0.0
51990.0,STARLINK-3657,PAYLOAD,2023-01-28 03:10:55,15.0883824,0.0001534,53.2164,81.3269,86.4343,273.6825,2.0735e-05,4.2e-07,0.0,0 STARLINK-3657,1 51990U 22025AL  23028.13258658  .00000042  00000-0  20735-4 0  9995,2 51990  53.2164  81.3269 0001534  86.4343 273.6825 15.08838240 50857,6917.886,95.438,540.812,538.69,0.0
51990.0,STARLINK-3657,PAYLOAD,2023-01-28 12:43:13,15.08846183,0.0001304,53.2172,79.5413,91.8771,268.2371,-2.2213e-05,-6.41e-06,0.0,0 STARLINK-3657,1 51990U 22025AL  23028.53002071 -.00000641  00000-0 -22213-4 0  9995,2 51990  53.2172  79.5413 0001304  91.8771 268.2371 15.08846183 49811,6917.861,95.437,540.629,538.824,0.0
51990.0,STARLINK-3657,PAYLOAD,2023-01-28 20:40:09,15.08848353,0.0001279,53.2172,78.0545,91.6027,268.5112,4.3136e-06,-2.19e-06,0.0,0 STARLINK-3657,1 51990U 22025AL  23028.86121735 -.00000219  00000-0  43136-5 0  9998,2 51990  53.2172  78.0545 0001279  91.6027 268.5112 15.08848353 49866,6917.855,95.437,540.605,538.835,0.0
51990.0,STARLINK-3657,PAYLOAD,2023-01-29 20:30:56,15.0883939,0.0001477,53.217,73.5947,84.1171,275.9989,0.00012155,1.647e-05,0.0,0 STARLINK-3657,1 51990U 22025AL  23029.85482225  .00001647  00000-0  12155-3 0  9992,2 51990  53.2170  73.5947 0001477  84.1171 275.9989 15.08839390 50011,6917.882,95.438,540.769,538.725,0.0
51990.0,STARLINK-3657,PAYLOAD,2023-01-30 02:52:29,15.08832339,0.0001386,53.2179,72.4039,100.4319,259.6829,0.00014671,2.047e-05,0.0,0 STARLINK-3657,1 51990U 22025AL  23030.11978625  .00002047  00000-0  14671-3 0  9997,2 51990  53.2179  72.4039 0001386 100.4319 259.6829 15.08832339 51159,6917.904,95.438,540.728,538.81,0.0
51990.0,STARLINK-3657,PAYLOAD,2023-01-30 09:14:02,15.08836796,0.0001322,53.2172,71.2154,94.5319,265.5825,0.00012358,1.679e-05,0.0,0 STARLINK-3657,1 51990U 22025AL  23030.38474603  .00001679  00000-0  12358-3 0  9993,2 51990  53.2172  71.2154 0001322  94.5319 265.5825 15.08836796 50095,6917.89,95.438,540.67,538.841,0.0
51990.0,STARLINK-3657,PAYLOAD,2023-01-31 02:43:16,15.08841822,0.0001349,53.2168,67.9447,92.2643,267.8504,4.1098e-05,3.66e-06,0.0,0 STARLINK-3657,1 51990U 22025AL  23031.11338282  .00000366  00000-0  41098-4 0  9993,2 51990  53.2168  67.9447 0001349  92.2643 267.8504 15.08841822 51301,6917.875,95.437,540.673,538.807,0.0
51990.0,STARLINK-3657,PAYLOAD,2023-01-31 12:15:34,15.08848312,0.0001328,53.2167,66.1592,103.229,256.8851,0.00011095,1.479e-05,0.0,0 STARLINK-3657,1 51990U 22025AL  23031.51081815  .00001479  00000-0  11095-3 0  9993,2 51990  53.2167  66.1592 0001328 103.2290 256.8851 15.08848312 50268,6917.855,95.437,540.639,538.801,0.0
51990.0,STARLINK-3657,PAYLOAD,2023-01-31 18:37:07,15.08844425,0.0001322,53.2167,64.9695,106.3227,253.791,6.8676e-06,-1.79e-06,0.0,0 STARLINK-3657,1 51990U 22025AL  23031.77577916 -.00000179  00000-0  68676-5 0  9999,2 51990  53.2167  64.9695 0001322 106.3227 253.7910 15.08844425 50304,6917.867,95.437,540.646,538.817,0.0
51990.0,STARLINK-3657,PAYLOAD,2023-02-01 10:30:58,15.0885013,0.0001329,53.2166,61.9965,101.9256,258.1885,0.00017689,2.529e-05,0.0,0 STARLINK-3657,1 51990U 22025AL  23032.43817575  .00002529  00000-0  17689-3 0  9997,2 51990  53.2166  61.9965 0001329 101.9256 258.1885 15.08850130 51503,6917.849,95.437,540.634,538.795,0.0
51990.0,STARLINK-3657,PAYLOAD,2023-02-01 12:06:21,15.0885057,0.000142,53.2166,61.6993,105.088,255.0269,0.00016848,2.395e-05,0.0,0 STARLINK-3657,1 51990U 22025AL  23032.50441512  .00002395  00000-0  16848-3 0  9996,2 51990  53.2166  61.6993 0001420 105.0880 255.0269 15.08850570 50410,6917.848,95.437,540.695,538.731,0.0
51990.0,STARLINK-3657,PAYLOAD,2023-02-01 18:27:54,15.08842369,0.0001173,53.2163,60.5097,94.9687,265.1439,6.6992e-05,7.79e-06,0.0,0 STARLINK-3657,1 51990U 22025AL  23032.76937864  .00000779  00000-0  66992-4 0  9994,2 51990  53.2163  60.5097 0001173  94.9687 265.1439 15.08842369 51550,6917.873,95.437,540.55,538.927,0.0
51990.0,STARLINK-3657,PAYLOAD,2023-02-02 10:21:46,15.08842363,0.0001007,53.2194,57.5377,83.7292,276.3815,-3.2535e-05,-8.06e-06,0.0,0 STARLINK-3657,1 51990U 22025AL  23033.43178388 -.00000806  00000-0 -32535-4 0  9996,2 51990  53.2194  57.5377 0001007  83.7292 276.3815 15.08842363 50550,6917.873,95.437,540.435,539.042,0.0
51990.0,STARLINK-3657,PAYLOAD,2023-02-03 10:12:33,15.08843528,0.0001287,53.2181,53.0756,91.8302,268.2837,2.6475e-05,1.34e-06,0.0,0 STARLINK-3657,1 51990U 22025AL  23034.42538492  .00000134  00000-0  26475-4 0  9990,2 51990  53.2181  53.0756 0001287  91.8302 268.2837 15.08843528 50705,6917.87,95.437,540.625,538.844,0.0
51990.0,STARLINK-3657,PAYLOAD,2023-02-04 10:03:20,15.08841805,0.0001348,53.2172,48.6145,84.6095,275.5051,0.00035664,5.393e-05,0.0,0 STARLINK-3657,1 51990U 22025AL  23035.41898655  .00005393  00000-0  35664-3 0  9991,2 51990  53.2172  48.6145 0001348  84.6095 275.5051 15.08841805 51957,6917.875,95.437,540.672,538.807,0.0
51990.0,STARLINK-3657,PAYLOAD,2023-02-04 18:00:15,15.08843306,0.0001372,53.2177,47.1275,86.6654,273.4495,0.00014796,2.068e-05,0.0,0 STARLINK-3657,1 51990U 22025AL  23035.75018508  .00002068  00000-0  14796-3 0  9998,2 51990  53.2177  47.1275 0001372  86.6654 273.4495 15.08843306 50901,6917.87,95.437,540.684,538.786,0.0
51990.0,STARLINK-3657,PAYLOAD,2023-02-05 00:21:48,15.08837378,0.0001109,53.2162,45.9382,90.9194,269.1925,6.1946e-05,6.98e-06,0.0,0 STARLINK-3657,1 51990U 22025AL  23036.01514808  .00000698  00000-0  61946-4 0  9999,2 51990  53.2162  45.9382 0001109  90.9194 269.1925 15.08837378 52044,6917.888,95.438,540.521,538.986,0.0
